PROGRESS-MS 32          
1 65586U 25204A   25324.22216551  .00014969  00000+0  28011-3 0  9996
2 65586  51.6325 253.9268 0004000 147.6792 212.4442 15.48916399   272
CYGNUS NG-23            
1 65616U 25208A   25324.22216551  .00014969  00000+0  28011-3 0  9994
2 65616  51.6325 253.9268 0004000 147.6792 212.4442 15.48916399   221
DRAGONFLY               
1 65729U 98067XH  25324.49519299  .00113256  00000+0  11320-2 0  9999
2 65729  51.6284 249.0015 0005769 156.4903 203.6356 15.64722952  9673
1998-067XJ              
1 65730U 98067XJ  25324.49868655  .00608220  00000+0  23799-2 0  9997
2 65730  51.6223 245.9925 0012162 154.8277 205.3322 15.84791294  9718
1998-067XK              
1 65731U 98067XK  25324.16831546  .00072372  00000+0  83779-3 0  9999
2 65731  51.6311 251.3233 0006017 130.1607 229.9914 15.61157875  9610
RSP-03                  
1 65732U 98067XL  25324.20491880  .00102651  00000+0  11069-2 0  9994
2 65732  51.6298 250.8143 0006768 132.4175 227.7392 15.62832054  9635
GHS-01                  
1 65733U 98067XM  25324.21972260  .00146631  00000+0  13850-2 0  9998
2 65733  51.6298 250.1647 0006341 153.3028 206.8295 15.66007224  9642
YOTSUBA-KULOVER         
1 65941U 98067XN  25324.19345057  .00063676  00000+0  89643-3 0  9995
2 65941  51.6312 252.9866 0002500 100.2515 259.8759 15.56036718  6344
BOTAN                   
1 65942U 98067XP  25324.17174389  .00079956  00000+0  10467-2 0  9997
2 65942  51.6307 252.8426 0004686 107.1846 252.9659 15.57884657  6347
E-KAGAKU-1              
1 65943U 98067XQ  25324.00041461  .00054210  00000+0  76616-3 0  9999
2 65943  51.6323 253.9494 0004082  87.0904 273.0554 15.55994040  6315
HRC MONOBLOCK CAMERA    
1 66052U 98067XR  25324.51693338  .00032335  00000+0  52843-3 0  9993
2 66052  51.6318 252.1434 0004777  94.9300 265.2236 15.52234502  5387
HTV-X1                  
1 66174U 25241A   25324.22216551  .00014969  00000+0  28011-3 0  9991
2 66174  51.6325 253.9268 0004000 147.6792 212.4442 15.48916399  1457
